IRIDIUM 7               
1 24793U 97020B   25191.45206876  .00000238  00000+0  75232-4 0  9994
2 24793  86.3993 167.1685 0002508  82.6570 277.4912 14.35951528475238
IRIDIUM 5               
1 24795U 97020D   25191.74532798  .00003247  00000+0  26335-3 0  9995
2 24795  86.3869  72.8678 0110651  54.5927 306.5575 14.94514769488981
IRIDIUM 4               
1 24796U 97020E   25191.49055564  .00000208  00000+0  63716-4 0  9998
2 24796  86.3991 164.0175 0002428  87.7159 272.4316 14.36853610475810
IRIDIUM 914             
1 24836U 97030A   25191.49790825  .00000271  00000+0  78322-4 0  9999
2 24836  86.3966 172.5406 0003482 110.0409 250.1166 14.40886092610482
IRIDIUM 16              
1 24841U 97030F   25191.56231702  .00000219  00000+0  65010-4 0  9999
2 24841  86.4046 195.4586 0002910  40.1586 319.9827 14.38726498470364
IRIDIUM 911             
1 24842U 97030G   25191.54881418  .00000346  00000+0  88309-4 0  9990
2 24842  86.4473 194.2094 0015198  28.2412 331.9613 14.47657360478464
IRIDIUM 17              
1 24870U 97034B   25191.63354446  .00000262  00000+0  80328-4 0  9991
2 24870  86.3948 224.8938 0001172  48.7800 311.3498 14.37841676466951
IRIDIUM 920             
1 24871U 97034C   25191.54670351  .00000252  00000+0  71492-4 0  9999
2 24871  86.3980 204.1140 0012012  15.9659 344.1917 14.41547317469949
